NORAD_CAT_ID,OBJECT_NAME,OBJECT_TYPE,EPOCH,MEAN_MOTION,ECCENTRICITY,INCLINATION,RA_OF_ASC_NODE,ARG_OF_PERICENTER,MEAN_ANOMALY,BSTAR,MEAN_MOTION_DOT,MEAN_MOTION_DDOT,TLE_LINE0,TLE_LINE1,TLE_LINE2,SEMIMAJOR_AXIS,PERIOD,APOGEE,PERIGEE,DECAYED
50818.0,STARLINK-3336,PAYLOAD,2022-03-18 08:00:01,15.48653733,0.0002411,53.2163,212.8365,17.0893,357.7984,-0.0097359,-0.00497321,0.0,0 STARLINK-3336,1 50818U 22001R   22077.33334491 -.00497321  00000-0 -97359-2 0  9998,2 50818  53.2163 212.8365 0002411  17.0893 357.7984 15.48653733 12378,6798.8,92.984,422.305,419.026,0.0
50818.0,STARLINK-3336,PAYLOAD,2022-03-18 14:00:01,15.48426893,0.0002421,53.2173,211.6423,19.0195,310.332,-0.014444,-0.00721172,0.0,0 STARLINK-3336,1 50818U 22001R   22077.58334491 -.00721172  00000-0 -14444-1 0  9992,2 50818  53.2173 211.6423 0002421  19.0195 310.3320 15.48426893 12418,6799.464,92.998,422.976,419.6830000000001,0.0
50818.0,STARLINK-3336,PAYLOAD,2022-03-18 22:00:00,15.47917338,0.0002517,53.2171,210.0514,15.814,12.3883,-0.014702,-0.00721056,0.0,0 STARLINK-3336,1 50818U 22001R   22077.91667824 -.00721056  00000-0 -14702-1 0  9996,2 50818  53.2171 210.0514 0002517  15.8140  12.3883 15.47917338  3736,6800.956999999999,93.028,424.533,421.11,0.0
50818.0,STARLINK-3336,PAYLOAD,2022-03-19 14:00:01,15.46901476,0.0002732,53.2171,206.8723,349.9002,154.1659,-0.015432,-0.00729807,0.0,0 STARLINK-3336,1 50818U 22001R   22078.58334491 -.00729807  00000-0 -15432-1 0  9994,2 50818  53.2171 206.8723 0002732 349.9002 154.1659 15.46901476 12560,6803.934,93.089,427.658,423.94,0.0
50818.0,STARLINK-3336,PAYLOAD,2022-03-19 22:00:01,15.4639035,0.0001217,53.2171,205.2847,327.164,233.9803,-0.015686,-0.00728579,0.0,0 STARLINK-3336,1 50818U 22001R   22078.91668981 -.00728579  00000-0 -15686-1 0  9991,2 50818  53.2171 205.2847 0001217 327.1640 233.9803 15.46390350  3709,6805.433000000001,93.12,428.126,426.47,0.0
50818.0,STARLINK-3336,PAYLOAD,2022-03-20 14:00:01,15.45359297,0.0001807,53.2174,202.1133,340.5036,332.7672,-0.015738,-0.00707167,0.0,0 STARLINK-3336,1 50818U 22001R   22079.58334491 -.00707167  00000-0 -15738-1 0  9999,2 50818  53.2174 202.1133 0001807 340.5036 332.7672 15.45359297  3671,6808.46,93.182,431.555,429.094,0.0
50818.0,STARLINK-3336,PAYLOAD,2022-03-20 22:00:01,15.4485494,8.87e-05,53.2173,200.5291,9.6632,358.8448,-0.016219,-0.00715457,0.0,0 STARLINK-3336,1 50818U 22001R   22079.91668981 -.00715457  00000-0 -16219-1 0  9996,2 50818  53.2173 200.5291 0000887   9.6632 358.8448 15.44854940 12774,6809.941,93.213,432.41,431.202,0.0
50818.0,STARLINK-3336,PAYLOAD,2022-03-21 14:00:01,15.43837133,0.0001758,53.2174,197.3654,37.8578,79.096,-0.016924,-0.0072074,0.0,0 STARLINK-3336,1 50818U 22001R   22080.58334491 -.00720740  00000-0 -16924-1 0  9991,2 50818  53.2174 197.3654 0001758  37.8578  79.0960 15.43837133  3664,6812.934,93.274,435.997,433.601,0.0
50818.0,STARLINK-3336,PAYLOAD,2022-03-21 22:00:00,15.43327132,0.000144,53.2171,195.7846,56.8888,113.4017,-0.017213,-0.00720417,0.0,0 STARLINK-3336,1 50818U 22001R   22080.91667824 -.00720417  00000-0 -17213-1 0  9990,2 50818  53.2171 195.7846 0001440  56.8888 113.4017 15.43327132 12927,6814.435,93.305,437.281,435.319,0.0
50818.0,STARLINK-3336,PAYLOAD,2022-03-22 14:00:01,15.4230622,0.0001501999999999,53.2174,192.6282,54.3078,220.8171,-0.017781,-0.00719047,0.0,0 STARLINK-3336,1 50818U 22001R   22081.58334491 -.00719047  00000-0 -17781-1 0  9992,2 50818  53.2174 192.6282 0001502  54.3078 220.8171 15.42306220  3741,6817.441999999999,93.367,440.331,438.283,0.0
50818.0,STARLINK-3336,PAYLOAD,2022-03-22 22:00:01,15.41798057,0.0001205,53.2173,191.051,69.7245,256.9622,-0.018167,-0.00721923,0.0,0 STARLINK-3336,1 50818U 22001R   22081.91668981 -.00721923  00000-0 -18167-1 0  9998,2 50818  53.2173 191.0510 0001205  69.7245 256.9622 15.41798057  3689,6818.94,93.397,441.626,439.983,0.0
50818.0,STARLINK-3336,PAYLOAD,2022-03-23 08:00:01,15.41141604,0.0001547,53.2168,189.0821,50.5175,69.6236,-0.017766,-0.00692912,0.0,0 STARLINK-3336,1 50818U 22001R   22082.33334491 -.00692912  00000-0 -17766-1 0  9990,2 50818  53.2168 189.0821 0001547  50.5175  69.6236 15.41141604 13146,6820.876,93.437,443.796,441.686,0.0
50818.0,STARLINK-3336,PAYLOAD,2022-03-23 14:00:01,15.40778653,0.0001516,53.2173,187.9021,44.6281,23.1513,-0.018816,-0.0072262,0.0,0 STARLINK-3336,1 50818U 22001R   22082.58334491 -.00722620  00000-0 -18816-1 0  9994,2 50818  53.2173 187.9021 0001516  44.6281  23.1513 15.40778653  3689,6821.946999999999,93.459,444.846,442.778,0.0
50818.0,STARLINK-3336,PAYLOAD,2022-03-23 22:00:00,15.40266677,0.0001291,53.2172,186.3285,60.9671,56.473,-0.019033,-0.00718864,0.0,0 STARLINK-3336,1 50818U 22001R   22082.91667824 -.00718864  00000-0 -19033-1 0  9997,2 50818  53.2172 186.3285 0001291  60.9671  56.4730 15.40266677 13237,6823.459,93.49,446.205,444.443,0.0
50818.0,STARLINK-3336,PAYLOAD,2022-03-24 14:00:01,15.39246102,0.0001643,53.2173,183.1866,50.5207,164.4001,-0.019659,-0.0071795,0.0,0 STARLINK-3336,1 50818U 22001R   22083.58334491 -.00717950  00000-0 -19659-1 0  9991,2 50818  53.2173 183.1866 0001643  50.5207 164.4001 15.39246102  3654,6826.474,93.552,449.461,447.218,0.0
50818.0,STARLINK-3336,PAYLOAD,2022-03-24 22:00:00,15.3873823,0.0001405,53.2173,181.6165,59.3298,203.4121,-0.020103,-0.00721641,0.0,0 STARLINK-3336,1 50818U 22001R   22083.91667824 -.00721641  00000-0 -20103-1 0  9995,2 50818  53.2173 181.6165 0001405  59.3298 203.4121 15.38738230  3678,6827.976,93.583,450.801,448.882,0.0
50818.0,STARLINK-3336,PAYLOAD,2022-03-25 00:00:02,15.38610277,0.000125,53.2175,181.2238,56.7638,307.9021,-0.020162,-0.00720767,0.0,0 STARLINK-3336,1 50818U 22001R   22084.00002315 -.00720767  00000-0 -20162-1 0  9997,2 50818  53.2175 181.2238 0001250  56.7638 307.9021 15.38610277 13405,6828.355,93.591,451.073,449.366,0.0
50818.0,STARLINK-3336,PAYLOAD,2022-03-25 14:00:01,15.37718328,0.0001591,53.2174,178.4824,41.4163,315.1289,-0.020781,-0.00721483,0.0,0 STARLINK-3336,1 50818U 22001R   22084.58334491 -.00721483  00000-0 -20781-1 0  9996,2 50818  53.2174 178.4824 0001591  41.4163 315.1289 15.37718328  3653,6830.995,93.645,453.947,451.773,0.0
50818.0,STARLINK-3336,PAYLOAD,2022-03-25 22:00:01,15.37207225,0.0001233,53.2174,176.9156,58.5591,344.0341,-0.021064,-0.00719334,0.0,0 STARLINK-3336,1 50818U 22001R   22084.91668981 -.00719334  00000-0 -21064-1 0  9994,2 50818  53.2174 176.9156 0001233  58.5591 344.0341 15.37207225  3672,6832.509,93.676,455.217,453.532,0.0
50818.0,STARLINK-3336,PAYLOAD,2022-03-26 06:00:00,15.36696131,0.0001476,53.2175,175.3502,48.468,39.432,-0.021333,-0.00716757,0.0,0 STARLINK-3336,1 50818U 22001R   22085.25001157 -.00716757  00000-0 -21333-1 0  9993,2 50818  53.2175 175.3502 0001476  48.4680  39.4320 15.36696131 13598,6834.024,93.708,456.898,454.88,0.0
50818.0,STARLINK-3336,PAYLOAD,2022-03-26 14:00:01,15.36187392,0.0001857,53.2175,173.78900000000004,38.8069,93.8488,-0.021771,-0.0071936,0.0,0 STARLINK-3336,1 50818U 22001R   22085.58334491 -.00719360  00000-0 -21771-1 0  9998,2 50818  53.2175 173.7890 0001857  38.8069  93.8488 15.36187392  3645,6835.533,93.739,458.667,456.129,0.0
50818.0,STARLINK-3336,PAYLOAD,2022-03-26 22:00:00,15.35677699,0.000156,53.2173,172.2256,51.3518,125.4492,-0.022146,-0.00719725,0.0,0 STARLINK-3336,1 50818U 22001R   22085.91667824 -.00719725  00000-0 -22146-1 0  9996,2 50818  53.2173 172.2256 0001560  51.3518 125.4492 15.35677699  3665,6837.045,93.77,459.977,457.844,0.0
50818.0,STARLINK-3336,PAYLOAD,2022-03-27 06:00:00,15.35166934,0.0001703,53.2175,170.6641,46.7071,173.6258,-0.02243,-0.00717286,0.0,0 STARLINK-3336,1 50818U 22001R   22086.25001157 -.00717286  00000-0 -22430-1 0  9991,2 50818  53.2175 170.6641 0001703  46.7071 173.6258 15.35166934 13748,6838.562,93.801,461.591,459.262,0.0
50818.0,STARLINK-3336,PAYLOAD,2022-03-27 14:00:01,15.34656498,0.0001717,53.2176,169.1063,45.1982,218.0531,-0.022801,-0.00717305,0.0,0 STARLINK-3336,1 50818U 22001R   22086.58334491 -.00717305  00000-0 -22801-1 0  9991,2 50818  53.2176 169.1063 0001717  45.1982 218.0531 15.34656498  3665,6840.078,93.832,463.117,460.769,0.0
50818.0,STARLINK-3336,PAYLOAD,2022-03-27 22:00:01,15.34148652,0.0001435,53.2174,167.5464,53.2709,252.3507,-0.023321,-0.00721461,0.0,0 STARLINK-3336,1 50818U 22001R   22086.91668981 -.00721461  00000-0 -23321-1 0  9998,2 50818  53.2174 167.5464 0001435  53.2709 252.3507 15.34148652  3666,6841.587,93.863,464.434,462.471,0.0
50818.0,STARLINK-3336,PAYLOAD,2022-03-28 06:00:00,15.33636784,0.0001418,53.2177,165.9888,51.2155,296.036,-0.023545,-0.00716964,0.0,0 STARLINK-3336,1 50818U 22001R   22087.25001157 -.00716964  00000-0 -23545-1 0  9992,2 50818  53.2177 165.9888 0001418  51.2155 296.0360 15.33636784 13902,6843.11,93.894,465.945,464.004,0.0
50818.0,STARLINK-3336,PAYLOAD,2022-03-28 14:00:01,15.33127755,0.0001533,53.2175,164.4345,44.1468,344.2481,-0.024028,-0.00719724,0.0,0 STARLINK-3336,1 50818U 22001R   22087.58335648 -.00719724  00000-0 -24028-1 0  9997,2 50818  53.2175 164.4345 0001533  44.1468 344.2481 15.33127755  3674,6844.624,93.926,467.539,465.44,0.0
50818.0,STARLINK-3336,PAYLOAD,2022-03-28 22:00:00,15.32617023,0.0001443,53.2175,162.8783,47.4038,21.3961,-0.024365,-0.00718218,0.0,0 STARLINK-3336,1 50818U 22001R   22087.91667824 -.00718218  00000-0 -24365-1 0  9999,2 50818  53.2175 162.8783 0001443  47.4038  21.3961 15.32617023  3656,6846.145,93.957,468.99800000000016,467.022,0.0
50818.0,STARLINK-3336,PAYLOAD,2022-03-29 06:00:02,15.32060103,0.0001514,53.2164,161.3255,46.2466,62.4951,-0.022412,-0.00653916,0.0,0 STARLINK-3336,1 50818U 22001R   22088.25002315 -.00653916  00000-0 -22412-1 0  9999,2 50818  53.2164 161.3255 0001514  46.2466  62.4951 15.32060103 14055,6847.804,93.991,470.706,468.632,0.0
50818.0,STARLINK-3336,PAYLOAD,2022-03-29 14:00:01,15.31454686,0.00017,53.2165,159.7755,40.7145,107.2701,-0.01892,-0.00542604,0.0,0 STARLINK-3336,1 50818U 22001R   22088.58334491 -.00542604  00000-0 -18920-1 0  9998,2 50818  53.2165 159.7755 0001700  40.7145 107.2701 15.31454686  3626,6849.608,94.028,472.638,470.309,0.0
